      2.10          N: GNSS NAV DATA                        RINEX VERSION / TYPE
fic2rin                                 03/27/2024 12:29:19 PGM / RUN BY / DATE
                                                            END OF HEADER
17 24  3 26  5 59 44.0  .712197739631D-03 -.159161572810D-11  .000000000000D+00
     .290000000000D+02 -.645937500000D+02  .438732560686D-08  .234726148669D+01
    -.328198075294D-05  .134432746563D-01  .377371907234D-05  .515369383621D+04
     .194384000000D+06  .154599547386D-06  .216315043761D+01 -.223517417908D-07
     .969602229196D+00  .308125000000D+03 -.132888282722D+01 -.799247577584D-08
    -.326085011321D-09  .100000000000D+01  .230700000000D+04  .000000000000D+00
     .240000000000D+01  .000000000000D+00 -.111758708954D-07  .290000000000D+02
     .187200000000D+06  .400000000000D+01
1  24  3 26  6  0  0.0  .176036264747D-03  .216004991671D-11  .000000000000D+00
     .560000000000D+02 -.393437500000D+02  .366193824871D-08 -.105796165464D+00
    -.203214585781D-05  .129601943772D-01  .117067247629D-04  .515400996208D+04
     .194400000000D+06 -.372529029846D-07 -.311226533443D+01  .163912773132D-06
     .990993952156D+00  .173875000000D+03  .100348461589D+01 -.774925135885D-08
    -.107147320259D-10  .100000000000D+01  .230700000000D+04  .000000000000D+00
     .240000000000D+01  .630000000000D+02  .512227416039D-08  .560000000000D+02
     .187200000000D+06  .400000000000D+01
5  24  3 26  6  0  0.0 -.166775658727D-03 -.136424205266D-11  .000000000000D+00
     .120000000000D+02  .676250000000D+02  .452518849226D-08  .267796549562D+01
     .338256359100D-05  .570143456571D-02  .773742794991D-05  .515358126831D+04
     .194400000000D+06  .428408384323D-07 -.213500579702D+01 -.465661287308D-07
     .970285925423D+00  .236343750000D+03  .123157777769D+01 -.795568852922D-08
     .536450916763D-09  .100000000000D+01  .230700000000D+04  .000000000000D+00
     .240000000000D+01  .000000000000D+00 -.107102096081D-07  .120000000000D+02
     .187200000000D+06  .400000000000D+01
6  24  3 26  6  0  0.0  .351420138031D-03 -.169393388205D-10  .000000000000D+00
     .900000000000D+01 -.400000000000D+02  .357407744610D-08  .342199366114D+00
    -.201165676117D-05  .311168120243D-02  .118073076010D-04  .515359102058D+04
     .194400000000D+06 -.186264514923D-07 -.312068455818D+01 -.409781932831D-07
     .990087544206D+00  .163937500000D+03 -.719639553933D+00 -.757495838456D-08
     .714315468392D-11  .100000000000D+01  .230700000000D+04  .000000000000D+00
     .240000000000D+01  .000000000000D+00  .419095158577D-08  .900000000000D+01
     .187200000000D+06  .400000000000D+01
3  24  3 26  6  0  0.0  .274111516774D-03  .221689333557D-10  .000000000000D+00
     .850000000000D+02  .586250000000D+02  .429910764652D-08 -.924865522853D+00
     .316649675369D-05  .522529392038D-02  .738352537155D-05  .515375241470D+04
     .194400000000D+06  .745058059692D-08 -.208447300486D+01  .856816768646D-07
     .983271669898D+00  .252625000000D+03  .106359443345D+01 -.796104589523D-08
     .511449875369D-09  .100000000000D+01  .230700000000D+04  .000000000000D+00
     .240000000000D+01  .000000000000D+00  .186264514923D-08  .850000000000D+02
     .187200000000D+06  .400000000000D+01
7  24  3 26  6  0  0.0 -.928440131247D-04 -.864019966684D-11  .000000000000D+00
     .790000000000D+02  .125000000000D+00  .459733435457D-08 -.528631887709D+00
     .335276126862D-07  .182130803587D-01  .113658607006D-04  .515366162872D+04
     .194400000000D+06 -.875443220139D-07  .821317319734D-02  .275671482086D-06
     .950844361501D+00  .156687500000D+03 -.213971227659D+01 -.832641825731D-08
    -.298583865788D-09  .100000000000D+01  .230700000000D+04  .000000000000D+00
     .240000000000D+01  .000000000000D+00 -.111758708954D-07  .790000000000D+02
     .187200000000D+06  .400000000000D+01
4  24  3 26  6  0  0.0  .323804095387D-03  .898126018001D-11  .000000000000D+00
     .207000000000D+03 -.466250000000D+02  .492734810097D-08  .203025903390D+01
    -.233575701714D-05  .278665265068D-02  .478141009808D-05  .515376565742D+04
     .194400000000D+06 -.223517417908D-07 -.100484843590D+01  .707805156708D-07
     .964312806036D+00  .292593750000D+03 -.295443475723D+01 -.834499045949D-08
    -.358943522867D-09  .100000000000D+01  .230700000000D+04  .000000000000D+00
     .240000000000D+01  .000000000000D+00 -.465661287308D-08  .975000000000D+03
     .187200000000D+06  .400000000000D+01
29 24  3 26  6  0  0.0 -.603795982897D-03  .102318153949D-11  .000000000000D+00
     .100000000000D+02 -.708125000000D+02  .450411618595D-08  .235643237238D+01
    -.362098217010D-05  .273368950002D-02  .418536365032D-05  .515361840057D+04
     .194400000000D+06 -.204890966415D-07  .217800813352D+01  .465661287308D-07
     .972006788144D+00  .304843750000D+03  .249302593752D+01 -.823105714228D-08
    -.345014371233D-09  .100000000000D+01  .230700000000D+04  .000000000000D+00
     .240000000000D+01  .000000000000D+00 -.977888703346D-08  .100000000000D+02
     .187200000000D+06  .400000000000D+01
27 24  3 26  6  0  0.0 -.144517980516D-04 -.261479726760D-11  .000000000000D+00
     .220000000000D+02 -.577187500000D+02  .465840832712D-08  .240471891234D+01
    -.310689210892D-05  .125448699109D-01  .324286520481D-05  .515367580795D+04
     .194400000000D+06 -.633299350739D-07  .209531073063D+01 -.175088644028D-06
     .962807488202D+00  .320187500000D+03  .775860366156D+00 -.829105964163D-08
    -.214294640518D-09  .100000000000D+01  .230700000000D+04  .000000000000D+00
     .240000000000D+01  .000000000000D+00  .186264514923D-08  .220000000000D+02
     .187200000000D+06  .400000000000D+01
31 24  3 26  6  0  0.0 -.228012446314D-03  .000000000000D+00  .000000000000D+00
     .710000000000D+02 -.275000000000D+01  .432482300338D-08 -.138612026511D+01
    -.182539224625D-06  .105242970167D-01  .123139470816D-04  .515370604515D+04
     .194400000000D+06  .217929482460D-06  .294336162454D-01 -.106170773506D-06
     .954843662077D+00  .137187500000D+03  .665208743403D+00 -.783032616451D-08
    -.241795786051D-09  .100000000000D+01  .230700000000D+04  .000000000000D+00
     .240000000000D+01  .000000000000D+00 -.130385160446D-07  .710000000000D+02
     .187200000000D+06  .400000000000D+01
32 24  3 26  6  0  0.0 -.616890843958D-03 -.102318153949D-11  .000000000000D+00
     .380000000000D+02 -.483437500000D+02  .494377735674D-08  .305475854700D+01
    -.247173011303D-05  .768683222122D-02  .442937016487D-05  .515364675331D+04
     .194400000000D+06  .279396772385D-07 -.104952801529D+01 -.132247805595D-06
     .961271222336D+00  .291375000000D+03 -.215140988366D+01 -.825748681461D-08
    -.391802034413D-09  .100000000000D+01  .230700000000D+04  .000000000000D+00
     .240000000000D+01  .000000000000D+00  .931322574615D-09  .380000000000D+02
     .187200000000D+06  .400000000000D+01
24 24  3 26  6  0  0.0 -.451367348433D-03 -.500222085975D-11  .000000000000D+00
     .520000000000D+02 -.177500000000D+02  .500199406742D-08  .506866632024D+00
    -.741332769394D-06  .151577835204D-01  .117104500532D-04  .515373026848D+04
     .194400000000D+06 -.162050127983D-06 -.876953879049D-01  .147148966789D-06
     .934484095116D+00  .141343750000D+03  .971181913008D+00 -.842213653008D-08
    -.476448417418D-09  .100000000000D+01  .230700000000D+04  .000000000000D+00
     .240000000000D+01  .000000000000D+00  .232830643654D-08  .520000000000D+02
     .187200000000D+06  .400000000000D+01
16 24  3 26  6  0  0.0 -.332314521074D-03  .909494701773D-11  .000000000000D+00
     .490000000000D+02  .906875000000D+02  .452340270359D-08 -.301046085067D+01
     .457465648651D-05  .139935635962D-01  .557117164135D-05  .515375363541D+04
     .194400000000D+06  .298023223877D-07  .114138581621D+01 -.208616256714D-06
     .962272655593D+00  .272531250000D+03  .833624200000D+00 -.804962101331D-08
     .427160650099D-09  .100000000000D+01  .230700000000D+04  .000000000000D+00
     .340000000000D+01  .000000000000D+00 -.102445483208D-07  .490000000000D+02
     .187200000000D+06  .400000000000D+01
9  24  3 26  6  0  0.0  .137646682560D-03  .133013600134D-10  .000000000000D+00
     .470000000000D+02 -.433437500000D+02  .507092551012D-08  .275935327816D+01
    -.206381082535D-05  .268997112289D-02  .437162816525D-05  .515369482613D+04
     .194400000000D+06  .106170773506D-06 -.106391143609D+01  .372529029846D-08
     .957805807862D+00  .293906250000D+03  .200630326905D+01 -.841392190219D-08
    -.316441752498D-09  .100000000000D+01  .230700000000D+04  .000000000000D+00
     .240000000000D+01  .000000000000D+00  .931322574615D-09  .470000000000D+02
     .187200000000D+06  .400000000000D+01
8  24  3 26  6  0  0.0  .808886252344D-04  .254658516496D-10  .000000000000D+00
     .460000000000D+02 -.502500000000D+02  .496270671665D-08  .230919557122D+01
    -.262632966042D-05  .944862305187D-02  .317394733429D-05  .515360395241D+04
     .194400000000D+06 -.139698386192D-06  .206936917152D+01  .167638063431D-07
     .953802773920D+00  .316562500000D+03  .344781040554D+00 -.847999608302D-08
    -.228580949885D-09  .100000000000D+01  .230700000000D+04  .000000000000D+00
     .240000000000D+01  .000000000000D+00  .465661287308D-08  .460000000000D+02
     .187200000000D+06  .400000000000D+01
20 24  3 26  6  0  0.0  .382550060749D-03 -.136424205266D-11  .000000000000D+00
     .450000000000D+02  .653750000000D+02  .484663045304D-08  .816147529626D+00
     .322610139847D-05  .373407115694D-02  .859610736370D-05  .515374750900D+04
     .194400000000D+06 -.447034835815D-07 -.226275905647D+01  .782310962677D-07
     .952858728014D+00  .210875000000D+03 -.260191170697D+01 -.822105672573D-08
     .497163566001D-09  .100000000000D+01  .230700000000D+04  .000000000000D+00
     .240000000000D+01  .000000000000D+00 -.838190317154D-08  .450000000000D+02
     .187200000000D+06  .400000000000D+01
